[{"OBJECT_NAME":"STARLINK-5069","OBJECT_ID":"2023-021N","EPOCH":"2026-03-09T16:45:13.956480","MEAN_MOTION":14.98330184,"ECCENTRICITY":0.00032556,"INCLINATION":70.0013,"RA_OF_ASC_NODE":184.3951,"ARG_OF_PERICENTER":267.8989,"MEAN_ANOMALY":92.1798,"EPHEMERIS_TYPE":0,"CLASSIFICATION_TYPE":"U","NORAD_CAT_ID":55640,"ELEMENT_SET_NO":999,"REV_AT_EPOCH":16879,"BSTAR":-7.833443e-6,"MEAN_MOTION_DOT":-1.86e-6,"MEAN_MOTION_DDOT":0},{"OBJECT_NAME":"SL-19 R\/B","OBJECT_ID":"2009-059D","EPOCH":"2026-03-09T23:12:06.356736","MEAN_MOTION":14.95113684,"ECCENTRICITY":0.01234897,"INCLINATION":98.3546,"RA_OF_ASC_NODE":329.2242,"ARG_OF_PERICENTER":331.1085,"MEAN_ANOMALY":28.3333,"EPHEMERIS_TYPE":0,"CLASSIFICATION_TYPE":"U","NORAD_CAT_ID":36039,"ELEMENT_SET_NO":999,"REV_AT_EPOCH":88779,"BSTAR":0.00015970397,"MEAN_MOTION_DOT":1.961e-5,"MEAN_MOTION_DDOT":0}]
